[{"OBJECT_NAME":"TIANHUI 5A","OBJECT_ID":"2023-168A","EPOCH":"2026-03-09T14:12:49.556736","MEAN_MOTION":14.8757926,"ECCENTRICITY":0.0001554,"INCLINATION":97.8216,"RA_OF_ASC_NODE":77.385,"ARG_OF_PERICENTER":89.7041,"MEAN_ANOMALY":270.4353,"EPHEMERIS_TYPE":0,"CLASSIFICATION_TYPE":"U","NORAD_CAT_ID":58199,"ELEMENT_SET_NO":999,"REV_AT_EPOCH":12779,"BSTAR":7.8424e-5,"MEAN_MOTION_DOT":6.58e-6,"MEAN_MOTION_DDOT":0},{"OBJECT_NAME":"DMSP 5D-2 F13 DEB","OBJECT_ID":"1995-015HR","EPOCH":"2026-03-08T15:23:33.485856","MEAN_MOTION":14.84977943,"ECCENTRICITY":0.00130164,"INCLINATION":98.6957,"RA_OF_ASC_NODE":143.2047,"ARG_OF_PERICENTER":226.4887,"MEAN_ANOMALY":133.5245,"EPHEMERIS_TYPE":0,"CLASSIFICATION_TYPE":"U","NORAD_CAT_ID":42299,"ELEMENT_SET_NO":999,"REV_AT_EPOCH":54615,"BSTAR":0.0086301946,"MEAN_MOTION_DOT":0.00074392,"MEAN_MOTION_DDOT":0}]
